[{"OBJECT_NAME":"STARLINK-2319","OBJECT_ID":"2021-018D","EPOCH":"2026-03-09T15:17:01.512384","MEAN_MOTION":15.3019597,"ECCENTRICITY":0.0001262,"INCLINATION":53.1599,"RA_OF_ASC_NODE":216.9503,"ARG_OF_PERICENTER":122.8406,"MEAN_ANOMALY":237.2717,"EPHEMERIS_TYPE":0,"CLASSIFICATION_TYPE":"U","NORAD_CAT_ID":47790,"ELEMENT_SET_NO":999,"REV_AT_EPOCH":27709,"BSTAR":3.4593e-5,"MEAN_MOTION_DOT":6.65e-6,"MEAN_MOTION_DDOT":0},{"OBJECT_NAME":"TEVEL2-3","OBJECT_ID":"2025-052J","EPOCH":"2026-03-09T15:29:22.754400","MEAN_MOTION":15.30377031,"ECCENTRICITY":0.0004761,"INCLINATION":97.3994,"RA_OF_ASC_NODE":324.7775,"ARG_OF_PERICENTER":105.7353,"MEAN_ANOMALY":254.4413,"EPHEMERIS_TYPE":0,"CLASSIFICATION_TYPE":"U","NORAD_CAT_ID":63218,"ELEMENT_SET_NO":999,"REV_AT_EPOCH":5485,"BSTAR":0.00069446,"MEAN_MOTION_DOT":0.00020365,"MEAN_MOTION_DDOT":0}]
